{
  "type": "FeatureCollection",
  "features": [
    {
      "type": "Feature",
      "properties": {
        "norad_id": 31737,
        "name": "FENGYUN 1C DEB",
        "group": "fengyun-1c-debris",
        "lat": -60.15069863782369,
        "lon": 177.0631152503142,
        "alt_km": 774.2923920939038,
        "timestamp": "2025-12-03T06:58:43.521748+00:00",
        "meta_object_name": "FENGYUN 1C DEB",
        "meta_object_id": "1999-025CEL",
        "meta_epoch": "2025-12-01T13:41:24.347616",
        "meta_mean_motion": 14.68604518,
        "meta_eccentricity": 0.0149838,
        "meta_inclination": 97.9197,
        "meta_ra_of_asc_node": 9.4352,
        "meta_arg_of_pericenter": 51.1715,
        "meta_mean_anomaly": 100.2858,
        "meta_ephemeris_type": 0,
        "meta_classification_type": "U",
        "meta_norad_cat_id": 31737,
        "meta_element_set_no": 999,
        "meta_rev_at_epoch": 98035,
        "meta_bstar": 0.00058137248,
        "meta_mean_motion_dot": 3.955e-05,
        "meta_mean_motion_ddot": 0,
        "tle_line1": "1 31737U 99025CEL 25335.57042069  .00003955  00000+0  58137-3 0  9995",
        "tle_line2": "2 31737  97.9197   9.4352 0149838  51.1715 100.2858 14.68604518980353"
      },
      "geometry": {
        "type": "Point",
        "coordinates": [
          177.0631152503142,
          -60.15069863782369
        ]
      }
    },
    {
      "type": "Feature",
      "properties": {
        "norad_id": 31738,
        "name": "FENGYUN 1C DEB",
        "group": "fengyun-1c-debris",
        "lat": -57.649947021294686,
        "lon": -150.5607425518869,
        "alt_km": 1037.2745425281228,
        "timestamp": "2025-12-03T06:58:43.521758+00:00",
        "meta_object_name": "FENGYUN 1C DEB",
        "meta_object_id": "1999-025CEM",
        "meta_epoch": "2025-11-17T10:08:15.850752",
        "meta_mean_motion": 13.84884182,
        "meta_eccentricity": 0.03082109,
        "meta_inclination": 99.3633,
        "meta_ra_of_asc_node": 28.6808,
        "meta_arg_of_pericenter": 167.6176,
        "meta_mean_anomaly": 193.2777,
        "meta_ephemeris_type": 0,
        "meta_classification_type": "U",
        "meta_norad_cat_id": 31738,
        "meta_element_set_no": 999,
        "meta_rev_at_epoch": 61907,
        "meta_bstar": 0.0026324864,
        "meta_mean_motion_dot": 4.259e-05,
        "meta_mean_motion_ddot": 0,
        "tle_line1": "1 31738U 99025CEM 25321.42240568  .00004259  00000+0  26325-2 0  9990",
        "tle_line2": "2 31738  99.3633  28.6808 0308210 167.6176 193.2777 13.84884182619073"
      },
      "geometry": {
        "type": "Point",
        "coordinates": [
          -150.5607425518869,
          -57.649947021294686
        ]
      }
    },
    {
      "type": "Feature",
      "properties": {
        "norad_id": 31739,
        "name": "FENGYUN 1C DEB",
        "group": "fengyun-1c-debris",
        "lat": 69.0726722852397,
        "lon": 8.99418742720862,
        "alt_km": 744.3425446643068,
        "timestamp": "2025-12-03T06:58:43.521768+00:00",
        "meta_object_name": "FENGYUN 1C DEB",
        "meta_object_id": "1999-025CEN",
        "meta_epoch": "2025-12-02T10:20:39.069600",
        "meta_mean_motion": 14.19209908,
        "meta_eccentricity": 0.01284606,
        "meta_inclination": 98.7491,
        "meta_ra_of_asc_node": 31.8923,
        "meta_arg_of_pericenter": 107.6285,
        "meta_mean_anomaly": 253.8967,
        "meta_ephemeris_type": 0,
        "meta_classification_type": "U",
        "meta_norad_cat_id": 31739,
        "meta_element_set_no": 999,
        "meta_rev_at_epoch": 95340,
        "meta_bstar": 0.00013591016,
        "meta_mean_motion_dot": 2.67e-06,
        "meta_mean_motion_ddot": 0,
        "tle_line1": "1 31739U 99025CEN 25336.43100775  .00000267  00000+0  13591-3 0  9990",
        "tle_line2": "2 31739  98.7491  31.8923 0128460 107.6285 253.8967 14.19209908953403"
      },
      "geometry": {
        "type": "Point",
        "coordinates": [
          8.99418742720862,
          69.0726722852397
        ]
      }
    },
    {
      "type": "Feature",
      "properties": {
        "norad_id": 31740,
        "name": "FENGYUN 1C DEB",
        "group": "fengyun-1c-debris",
        "lat": -31.688194263210725,
        "lon": 153.35350387497184,
        "alt_km": 768.5279921064111,
        "timestamp": "2025-12-03T06:58:43.521778+00:00",
        "meta_object_name": "FENGYUN 1C DEB",
        "meta_object_id": "1999-025CEP",
        "meta_epoch": "2025-12-01T10:18:20.504736",
        "meta_mean_motion": 14.42006625,
        "meta_eccentricity": 0.00243587,
        "meta_inclination": 99.8211,
        "meta_ra_of_asc_node": 145.0762,
        "meta_arg_of_pericenter": 101.5156,
        "meta_mean_anomaly": 289.0641,
        "meta_ephemeris_type": 0,
        "meta_classification_type": "U",
        "meta_norad_cat_id": 31740,
        "meta_element_set_no": 999,
        "meta_rev_at_epoch": 64912,
        "meta_bstar": 0.0016124187,
        "meta_mean_motion_dot": 5.258e-05,
        "meta_mean_motion_ddot": 0,
        "tle_line1": "1 31740U 99025CEP 25335.42940399  .00005258  00000+0  16124-2 0  9993",
        "tle_line2": "2 31740  99.8211 145.0762 0024358 101.5156 289.0641 14.42006625649125"
      },
      "geometry": {
        "type": "Point",
        "coordinates": [
          153.35350387497184,
          -31.688194263210725
        ]
      }
    },
    {
      "type": "Feature",
      "properties": {
        "norad_id": 31742,
        "name": "FENGYUN 1C DEB",
        "group": "fengyun-1c-debris",
        "lat": 28.311058089270794,
        "lon": 21.56237076956586,
        "alt_km": 807.4425258320089,
        "timestamp": "2025-12-03T06:58:43.521788+00:00",
        "meta_object_name": "FENGYUN 1C DEB",
        "meta_object_id": "1999-025CER",
        "meta_epoch": "2025-12-01T20:55:18.603840",
        "meta_mean_motion": 14.39718292,
        "meta_eccentricity": 0.00771232,
        "meta_inclination": 98.9202,
        "meta_ra_of_asc_node": 195.2322,
        "meta_arg_of_pericenter": 1.5398,
        "meta_mean_anomaly": 358.6012,
        "meta_ephemeris_type": 0,
        "meta_classification_type": "U",
        "meta_norad_cat_id": 31742,
        "meta_element_set_no": 999,
        "meta_rev_at_epoch": 96493,
        "meta_bstar": 0.00077832626,
        "meta_mean_motion_dot": 2.475e-05,
        "meta_mean_motion_ddot": 0,
        "tle_line1": "1 31742U 99025CER 25335.87174310  .00002475  00000+0  77833-3 0  9999",
        "tle_line2": "2 31742  98.9202 195.2322 0077123   1.5398 358.6012 14.39718292964931"
      },
      "geometry": {
        "type": "Point",
        "coordinates": [
          21.56237076956586,
          28.311058089270794
        ]
      }
    },
    {
      "type": "Feature",
      "properties": {
        "norad_id": 31743,
        "name": "FENGYUN 1C DEB",
        "group": "fengyun-1c-debris",
        "lat": 16.988174213424088,
        "lon": 87.53722080751047,
        "alt_km": 785.8992164424753,
        "timestamp": "2025-12-03T06:58:43.521798+00:00",
        "meta_object_name": "FENGYUN 1C DEB",
        "meta_object_id": "1999-025CES",
        "meta_epoch": "2025-12-01T14:32:00.153312",
        "meta_mean_motion": 14.31133628,
        "meta_eccentricity": 0.00376394,
        "meta_inclination": 99.1406,
        "meta_ra_of_asc_node": 262.9461,
        "meta_arg_of_pericenter": 252.5385,
        "meta_mean_anomaly": 232.9861,
        "meta_ephemeris_type": 0,
        "meta_classification_type": "U",
        "meta_norad_cat_id": 31743,
        "meta_element_set_no": 999,
        "meta_rev_at_epoch": 95481,
        "meta_bstar": 0.0018260864,
        "meta_mean_motion_dot": 4.809e-05,
        "meta_mean_motion_ddot": 0,
        "tle_line1": "1 31743U 99025CES 25335.60555733  .00004809  00000+0  18261-2 0  9995",
        "tle_line2": "2 31743  99.1406 262.9461 0037639 252.5385 232.9861 14.31133628954817"
      },
      "geometry": {
        "type": "Point",
        "coordinates": [
          87.53722080751047,
          16.988174213424088
        ]
      }
    },
    {
      "type": "Feature",
      "properties": {
        "norad_id": 31744,
        "name": "FENGYUN 1C DEB",
        "group": "fengyun-1c-debris",
        "lat": -74.59328074141769,
        "lon": -128.68845447110567,
        "alt_km": 1072.0055253239489,
        "timestamp": "2025-12-03T06:58:43.521809+00:00",
        "meta_object_name": "FENGYUN 1C DEB",
        "meta_object_id": "1999-025CET",
        "meta_epoch": "2025-11-29T03:26:49.806528",
        "meta_mean_motion": 14.16350524,
        "meta_eccentricity": 0.03169793,
        "meta_inclination": 99.3044,
        "meta_ra_of_asc_node": 83.4774,
        "meta_arg_of_pericenter": 82.8313,
        "meta_mean_anomaly": 280.878,
        "meta_ephemeris_type": 0,
        "meta_classification_type": "U",
        "meta_norad_cat_id": 31744,
        "meta_element_set_no": 999,
        "meta_rev_at_epoch": 94422,
        "meta_bstar": 0.0014635111,
        "meta_mean_motion_dot": 4.702e-05,
        "meta_mean_motion_ddot": 0,
        "tle_line1": "1 31744U 99025CET 25333.14363202  .00004702  00000+0  14635-2 0  9994",
        "tle_line2": "2 31744  99.3044  83.4774 0316979  82.8313 280.8780 14.16350524944228"
      },
      "geometry": {
        "type": "Point",
        "coordinates": [
          -128.68845447110567,
          -74.59328074141769
        ]
      }
    }
  ]
}